{"type": "FeatureCollection", "features": [ {"type": "Feature", "properties": {"norad_id": 30928, "name": "FENGYUN 1C DEB", "group": "fengyun-1c-debris", "lat": 79.26889955413934, "lon": -55.855860284441334, "alt_km": 911.2392950461981, "timestamp": "2025-12-03T22:42:32.914296+00:00", "meta": {"OBJECT_NAME": "FENGYUN 1C DEB", "OBJECT_ID": "1999-025AZS", "EPOCH": "2025-12-02T04:48:04.904928", "MEAN_MOTION": 13.22221332, "ECCENTRICITY": 0.045112, "INCLINATION": 98.8836, "RA_OF_ASC_NODE": 67.0421, "ARG_OF_PERICENTER": 57.6478, "MEAN_ANOMALY": 7.5056, "EPHEMERIS_TYPE": 0, "CLASSIFICATION_TYPE": "U", "NORAD_CAT_ID": 30928, "ELEMENT_SET_NO": 999, "REV_AT_EPOCH": 90209, "BSTAR": 0.00088279603, "MEAN_MOTION_DOT": 5.96e-06, "MEAN_MOTION_DDOT": 0}, "tle": {"line1": "1 30928U 99025AZS 25336.20005677  .00000596  00000+0  88280-3 0  9991", "line2": "2 30928  98.8836  67.0421 0451120  57.6478   7.5056 13.22221332902090"}}, "geometry": {"type": "Point", "coordinates": [-55.855860284441334, 79.26889955413934]}}, {"type": "Feature", "properties": {"norad_id": 30930, "name": "FENGYUN 1C DEB", "group": "fengyun-1c-debris", "lat": -14.530518782380154, "lon": -175.5156713769431, "alt_km": 734.5807600911758, "timestamp": "2025-12-03T22:42:32.914305+00:00", "meta": {"OBJECT_NAME": "FENGYUN 1C DEB", "OBJECT_ID": "1999-025AZU", "EPOCH": "2025-12-02T07:40:45.179040", "MEAN_MOTION": 14.37352769, "ECCENTRICITY": 0.0109503, "INCLINATION": 98.2165, "RA_OF_ASC_NODE": 5.0765, "ARG_OF_PERICENTER": 137.3637, "MEAN_ANOMALY": 286.006, "EPHEMERIS_TYPE": 0, "CLASSIFICATION_TYPE": "U", "NORAD_CAT_ID": 30930, "ELEMENT_SET_NO": 999, "REV_AT_EPOCH": 98182, "BSTAR": 0.00047615, "MEAN_MOTION_DOT": 1.481e-05, "MEAN_MOTION_DDOT": 0}, "tle": {"line1": "1 30930U 99025AZU 25336.31996735  .00001481  00000+0  47615-3 0  9991", "line2": "2 30930  98.2165   5.0765 0109503 137.3637 286.0060 14.37352769981826"}}, "geometry": {"type": "Point", "coordinates": [-175.5156713769431, -14.530518782380154]}}, {"type": "Feature", "properties": {"norad_id": 30931, "name": "FENGYUN 1C DEB", "group": "fengyun-1c-debris", "lat": 77.26921504166732, "lon": -10.232072607430174, "alt_km": 815.8776858644851, "timestamp": "2025-12-03T22:42:32.914314+00:00", "meta": {"OBJECT_NAME": "FENGYUN 1C DEB", "OBJECT_ID": "1999-025AZV", "EPOCH": "2025-12-02T03:47:35.105280", "MEAN_MOTION": 14.01483755, "ECCENTRICITY": 0.00934004, "INCLINATION": 99.1741, "RA_OF_ASC_NODE": 33.6379, "ARG_OF_PERICENTER": 70.6138, "MEAN_ANOMALY": 353.2512, "EPHEMERIS_TYPE": 0, "CLASSIFICATION_TYPE": "U", "NORAD_CAT_ID": 30931, "ELEMENT_SET_NO": 999, "REV_AT_EPOCH": 95777, "BSTAR": 0.00063376382, "MEAN_MOTION_DOT": 9.5e-06, "MEAN_MOTION_DDOT": 0}, "tle": {"line1": "1 30931U 99025AZV 25336.15804520  .00000950  00000+0  63376-3 0  9996", "line2": "2 30931  99.1741  33.6379 0093400  70.6138 353.2512 14.01483755957775"}}, "geometry": {"type": "Point", "coordinates": [-10.232072607430174, 77.26921504166732]}}, {"type": "Feature", "properties": {"norad_id": 30932, "name": "FENGYUN 1C DEB", "group": "fengyun-1c-debris", "lat": -65.569950685863, "lon": -69.109233812202, "alt_km": 771.7964192351665, "timestamp": "2025-12-03T22:42:32.914323+00:00", "meta": {"OBJECT_NAME": "FENGYUN 1C DEB", "OBJECT_ID": "1999-025AZW", "EPOCH": "2025-12-02T13:21:15.743808", "MEAN_MOTION": 14.2657023, "ECCENTRICITY": 0.00597024, "INCLINATION": 98.908, "RA_OF_ASC_NODE": 269.2788, "ARG_OF_PERICENTER": 323.0906, "MEAN_ANOMALY": 36.6172, "EPHEMERIS_TYPE": 0, "CLASSIFICATION_TYPE": "U", "NORAD_CAT_ID": 30932, "ELEMENT_SET_NO": 999, "REV_AT_EPOCH": 96249, "BSTAR": 0.0039272041, "MEAN_MOTION_DOT": 9.621e-05, "MEAN_MOTION_DDOT": 0}, "tle": {"line1": "1 30932U 99025AZW 25336.55643222  .00009621  00000+0  39272-2 0  9992", "line2": "2 30932  98.9080 269.2788 0059702 323.0906  36.6172 14.26570230962496"}}, "geometry": {"type": "Point", "coordinates": [-69.109233812202, -65.569950685863]}}, {"type": "Feature", "properties": {"norad_id": 30933, "name": "FENGYUN 1C DEB", "group": "fengyun-1c-debris", "lat": -66.3223605251692, "lon": 118.69841932732676, "alt_km": 787.9911244704817, "timestamp": "2025-12-03T22:42:32.914332+00:00", "meta": {"OBJECT_NAME": "FENGYUN 1C DEB", "OBJECT_ID": "1999-025AZX", "EPOCH": "2025-12-03T10:35:09.959136", "MEAN_MOTION": 14.36004437, "ECCENTRICITY": 0.0078205, "INCLINATION": 99.0463, "RA_OF_ASC_NODE": 319.4726, "ARG_OF_PERICENTER": 349.2972, "MEAN_ANOMALY": 169.7142, "EPHEMERIS_TYPE": 0, "CLASSIFICATION_TYPE": "U", "NORAD_CAT_ID": 30933, "ELEMENT_SET_NO": 999, "REV_AT_EPOCH": 95738, "BSTAR": 0.0070037, "MEAN_MOTION_DOT": 0.00021088, "MEAN_MOTION_DDOT": 0}, "tle": {"line1": "1 30933U 99025AZX 25337.44108749  .00021088  00000+0  70037-2 0  9997", "line2": "2 30933  99.0463 319.4726 0078205 349.2972 169.7142 14.36004437957385"}}, "geometry": {"type": "Point", "coordinates": [118.69841932732676, -66.3223605251692]}}, {"type": "Feature", "properties": {"norad_id": 30934, "name": "FENGYUN 1C DEB", "group": "fengyun-1c-debris", "lat": 36.83032276820207, "lon": 42.65617467861946, "alt_km": 880.2464320177951, "timestamp": "2025-12-03T22:42:32.914341+00:00", "meta": {"OBJECT_NAME": "FENGYUN 1C DEB", "OBJECT_ID": "1999-025AZY", "EPOCH": "2025-12-03T07:46:10.336800", "MEAN_MOTION": 13.46700775, "ECCENTRICITY": 0.0339984, "INCLINATION": 98.7655, "RA_OF_ASC_NODE": 215.475, "ARG_OF_PERICENTER": 105.4994, "MEAN_ANOMALY": 258.395, "EPHEMERIS_TYPE": 0, "CLASSIFICATION_TYPE": "U", "NORAD_CAT_ID": 30934, "ELEMENT_SET_NO": 999, "REV_AT_EPOCH": 91581, "BSTAR": 0.0021163, "MEAN_MOTION_DOT": 1.783e-05, "MEAN_MOTION_DDOT": 0}, "tle": {"line1": "1 30934U 99025AZY 25337.32373075  .00001783  00000+0  21163-2 0  9997", "line2": "2 30934  98.7655 215.4750 0339984 105.4994 258.3950 13.46700775915819"}}, "geometry": {"type": "Point", "coordinates": [42.65617467861946, 36.83032276820207]}}, {"type": "Feature", "properties": {"norad_id": 30936, "name": "FENGYUN 1C DEB", "group": "fengyun-1c-debris", "lat": -81.3717025066228, "lon": 104.54002057029041, "alt_km": 799.0267085703426, "timestamp": "2025-12-03T22:42:32.914350+00:00", "meta": {"OBJECT_NAME": "FENGYUN 1C DEB", "OBJECT_ID": "1999-025BAA", "EPOCH": "2025-12-03T08:31:11.879040", "MEAN_MOTION": 14.23338308, "ECCENTRICITY": 0.0046088, "INCLINATION": 98.5827, "RA_OF_ASC_NODE": 8.3891, "ARG_OF_PERICENTER": 318.6028, "MEAN_ANOMALY": 163.2671, "EPHEMERIS_TYPE": 0, "CLASSIFICATION_TYPE": "U", "NORAD_CAT_ID": 30936, "ELEMENT_SET_NO": 999, "REV_AT_EPOCH": 96999, "BSTAR": 0.0007152, "MEAN_MOTION_DOT": 1.596e-05, "MEAN_MOTION_DDOT": 0}, "tle": {"line1": "1 30936U 99025BAA 25337.35499860  .00001596  00000+0  71520-3 0  9998", "line2": "2 30936  98.5827   8.3891 0046088 318.6028 163.2671 14.23338308969998"}}, "geometry": {"type": "Point", "coordinates": [104.54002057029041, -81.3717025066228]}}, {"type": "Feature", "properties": {"norad_id": 30937, "name": "FENGYUN 1C DEB", "group": "fengyun-1c-debris", "lat": -75.08823774486855, "lon": 173.47291186001868, "alt_km": 971.7597428093122, "timestamp": "2025-12-03T22:42:32.914360+00:00", "meta": {"OBJECT_NAME": "FENGYUN 1C DEB", "OBJECT_ID": "1999-025BAB", "EPOCH": "2025-12-03T09:44:46.355712", "MEAN_MOTION": 13.95582304, "ECCENTRICITY": 0.0075943, "INCLINATION": 99.0904, "RA_OF_ASC_NODE": 29.8969, "ARG_OF_PERICENTER": 78.4961, "MEAN_ANOMALY": 347.4791, "EPHEMERIS_TYPE": 0, "CLASSIFICATION_TYPE": "U", "NORAD_CAT_ID": 30937, "ELEMENT_SET_NO": 999, "REV_AT_EPOCH": 95586, "BSTAR": 2.2747e-05, "MEAN_MOTION_DOT": -1.2e-07, "MEAN_MOTION_DDOT": 0}, "tle": {"line1": "1 30937U 99025BAB 25337.40609208 -.00000012  00000+0  22747-4 0  9995", "line2": "2 30937  99.0904  29.8969 0075943  78.4961 347.4791 13.95582304955869"}}, "geometry": {"type": "Point", "coordinates": [173.47291186001868, -75.08823774486855]}}, {"type": "Feature", "properties": {"norad_id": 30938, "name": "FENGYUN 1C DEB", "group": "fengyun-1c-debris", "lat": -64.4435009632223, "lon": 10.127653147855227, "alt_km": 824.4566856943047, "timestamp": "2025-12-03T22:42:32.914369+00:00", "meta": {"OBJECT_NAME": "FENGYUN 1C DEB", "OBJECT_ID": "1999-025BAC", "EPOCH": "2025-12-03T11:55:53.048064", "MEAN_MOTION": 14.1979591, "ECCENTRICITY": 0.0046407, "INCLINATION": 98.5911, "RA_OF_ASC_NODE": 351.2623, "ARG_OF_PERICENTER": 10.562, "MEAN_ANOMALY": 150.1314, "EPHEMERIS_TYPE": 0, "CLASSIFICATION_TYPE": "U", "NORAD_CAT_ID": 30938, "ELEMENT_SET_NO": 999, "REV_AT_EPOCH": 96988, "BSTAR": 0.00052315, "MEAN_MOTION_DOT": 1.078e-05, "MEAN_MOTION_DDOT": 0}, "tle": {"line1": "1 30938U 99025BAC 25337.49714176  .00001078  00000+0  52315-3 0  9991", "line2": "2 30938  98.5911 351.2623 0046407  10.5620 150.1314 14.19795910969886"}}, "geometry": {"type": "Point", "coordinates": [10.127653147855227, -64.4435009632223]}}, {"type": "Feature", "properties": {"norad_id": 30940, "name": "FENGYUN 1C DEB", "group": "fengyun-1c-debris", "lat": -42.688885113035504, "lon": 150.63158011044575, "alt_km": 901.1895717364278, "timestamp": "2025-12-03T22:42:32.914378+00:00", "meta": {"OBJECT_NAME": "FENGYUN 1C DEB", "OBJECT_ID": "1999-025BAE", "EPOCH": "2025-11-23T13:17:29.751648", "MEAN_MOTION": 14.0826145, "ECCENTRICITY": 0.004197, "INCLINATION": 98.622, "RA_OF_ASC_NODE": 328.746, "ARG_OF_PERICENTER": 57.4359, "MEAN_ANOMALY": 68.2923, "EPHEMERIS_TYPE": 0, "CLASSIFICATION_TYPE": "U", "NORAD_CAT_ID": 30940, "ELEMENT_SET_NO": 999, "REV_AT_EPOCH": 95862, "BSTAR": 0.00040929136, "MEAN_MOTION_DOT": 6.64e-06, "MEAN_MOTION_DDOT": 0}, "tle": {"line1": "1 30940U 99025BAE 25327.55381657  .00000664  00000+0  40929-3 0  9992", "line2": "2 30940  98.6220 328.7460 0041970  57.4359  68.2923 14.08261450958620"}}, "geometry": {"type": "Point", "coordinates": [150.63158011044575, -42.688885113035504]}}]}